{"fetched_at":"2026-07-19T07:05:30.530Z","source":"https://celestrak.org/NORAD/elements/gp.php?NAME=RADARSAT&FORMAT=JSON","constellation":"radarsat-2","records":[{"OBJECT_NAME":"RADARSAT-2","OBJECT_ID":"2007-061A","EPOCH":"2026-07-18T20:59:21.579648","CLASSIFICATION_TYPE":"U","MEAN_MOTION":14.29982948,"ECCENTRICITY":0.0001329,"INCLINATION":98.5783,"RA_OF_ASC_NODE":206.3549,"ARG_OF_PERICENTER":85.0497,"MEAN_ANOMALY":275.0837,"EPHEMERIS_TYPE":0,"NORAD_CAT_ID":32382,"ELEMENT_SET_NO":999,"REV_AT_EPOCH":97048,"BSTAR":-0.000062056,"MEAN_MOTION_DOT":-0.00000204,"MEAN_MOTION_DDOT":0}]}
